[{"OBJECT_NAME":"JILIN-1 GAOFEN 03D47","OBJECT_ID":"2022-167L","EPOCH":"2026-03-09T22:56:46.924224","MEAN_MOTION":15.31686941,"ECCENTRICITY":0.00089304,"INCLINATION":97.6835,"RA_OF_ASC_NODE":234.6581,"ARG_OF_PERICENTER":110.4031,"MEAN_ANOMALY":249.8169,"EPHEMERIS_TYPE":0,"CLASSIFICATION_TYPE":"U","NORAD_CAT_ID":54692,"ELEMENT_SET_NO":999,"REV_AT_EPOCH":18014,"BSTAR":0.00047294748,"MEAN_MOTION_DOT":0.00014417,"MEAN_MOTION_DDOT":0},{"OBJECT_NAME":"STARLINK-35281","OBJECT_ID":"2025-221B","EPOCH":"2026-03-09T08:01:13.983168","MEAN_MOTION":15.3018104,"ECCENTRICITY":0.00011903,"INCLINATION":53.1588,"RA_OF_ASC_NODE":90.3744,"ARG_OF_PERICENTER":83.026,"MEAN_ANOMALY":277.0877,"EPHEMERIS_TYPE":0,"CLASSIFICATION_TYPE":"U","NORAD_CAT_ID":65824,"ELEMENT_SET_NO":999,"REV_AT_EPOCH":2602,"BSTAR":0.00013385737,"MEAN_MOTION_DOT":3.605e-5,"MEAN_MOTION_DDOT":0}]
